[{"OBJECT_NAME":"FLOCK 4Q-12","OBJECT_ID":"2023-174V","EPOCH":"2026-03-09T17:55:40.777536","MEAN_MOTION":15.52068152,"ECCENTRICITY":0.00053018,"INCLINATION":97.3876,"RA_OF_ASC_NODE":157.9059,"ARG_OF_PERICENTER":154.2743,"MEAN_ANOMALY":205.8774,"EPHEMERIS_TYPE":0,"CLASSIFICATION_TYPE":"U","NORAD_CAT_ID":58275,"ELEMENT_SET_NO":999,"REV_AT_EPOCH":13040,"BSTAR":0.0013357281,"MEAN_MOTION_DOT":0.00081198,"MEAN_MOTION_DDOT":0},{"OBJECT_NAME":"STARLINK-32335","OBJECT_ID":"2024-195S","EPOCH":"2026-03-09T22:00:01.999584","MEAN_MOTION":15.5379623,"ECCENTRICITY":0.00142813,"INCLINATION":53.1479,"RA_OF_ASC_NODE":149.8644,"ARG_OF_PERICENTER":3.406,"MEAN_ANOMALY":158.0753,"EPHEMERIS_TYPE":0,"CLASSIFICATION_TYPE":"U","NORAD_CAT_ID":61703,"ELEMENT_SET_NO":999,"REV_AT_EPOCH":583,"BSTAR":0.0040457397,"MEAN_MOTION_DOT":0.00274037,"MEAN_MOTION_DDOT":0}]
